#cP2023  7 24  0  0  0.00000000      96 ORBIT IGS20 HLM  IGS
## 2272  86400.00000000   900.00000000 60149 0.0000000000000
+   32   G01G02G03G04G05G06G07G08G09G10G11G12G13G14G15G16G17
+        G18G19G20G21G22G23G24G25G26G27G28G29G30G31G32  0  0
+          0  0  0  0  0  0  0  0  0  0  0  0  0  0  0  0  0
+          0  0  0  0  0  0  0  0  0  0  0  0  0  0  0  0  0
+          0  0  0  0  0  0  0  0  0  0  0  0  0  0  0  0  0
++         2  2  2  2  2  2  2  2  4  2  2  2  3  2  2  2  2
++         2  3  2  2  2  2  2  2  2  2  2  2  2  2  2  0  0
++         0  0  0  0  0  0  0  0  0  0  0  0  0  0  0  0  0
++         0  0  0  0  0  0  0  0  0  0  0  0  0  0  0  0  0
++         0  0  0  0  0  0  0  0  0  0  0  0  0  0  0  0  0
%c G  cc GPS ccc cccc cccc cccc cccc ccccc ccccc ccccc ccccc
%c cc cc ccc ccc cccc cccc cccc cccc ccccc ccccc ccccc ccccc
%f  1.2500000  1.025000000  0.00000000000  0.000000000000000
%f  0.0000000  0.000000000  0.00000000000  0.000000000000000
%i    0    0    0    0      0      0      0      0         0
%i    0    0    0    0      0      0      0      0         0
/* RAPID ORBIT COMBINATION FROM WEIGHTED AVERAGE OF:        
/* cod emr esa gfz grg jgx jpl ngs sio usn whu              
/* REFERENCED TO IGS TIME (IGST) AND TO WEIGHTED MEAN POLE: 
/* PCV:IGS20      OL/AL:FES2014b NONE     Y  ORB:CMB CLK:CMB
*  2023  7 24  1 30  0.00000000
PG01 -20567.562454 -12708.575242  11037.654340    171.574261  7  7  8  96       
PG02 -21408.279970 -15054.160811   5488.229747   -573.049287  7  5  6  86       
PG03 -14529.819107  -2854.684279  21901.383225   -219.592400  5  3  5  70       
PG04 -25364.357145  -1211.180384   7998.691148    104.515760  9  6  7  82       
PG05   7429.296845  18600.982341 -17569.886244   -136.058274  7  6  6 109       
PG06   -820.477334  18267.838559  19286.853701    574.887638  7  5  5 125       
PG07 -16888.402854   2551.316395 -19990.802753    116.342914  8  7  6 100       
PG08 -18799.609168  -7967.650436 -17268.599468   -133.712563  6  7  5 103       
PG09 -25638.276667   6923.476310  -1267.138562   -104.713112  5 13 12 118       
PG10  10985.519817 -23488.403719  -4726.884235    -46.384890  6  6  6 117       
PG11  11288.641024  22703.304494   7992.380890   -289.110540  5  4  6 104       
PG12  13059.898135   7580.766281  21577.679859   -404.360195  4  5  4  84       
PG13  10719.196651  13359.124758 -20540.380576    551.054621  9  4  7  87       
PG14 -13545.195277  21433.507878  -7607.696315    131.843145  6  4  5 102       
PG15  20029.697534   6070.557655 -16967.469533     60.872090  6  6  7  82       
PG16  -2329.309549 -21564.689774 -15318.795787   -477.186276  7  5  5 105       
PG17 -16419.806678  13622.831252  16316.390998    721.546531  9  8  9 109       
PG18  14717.039123  -5306.252463 -21488.751350   -356.763788  8  7  5  95       
PG19  -8866.094256  14611.836430  20024.063412    347.987010  8 10 10 109       
PG20   2488.842380  25108.053535  -8559.390682    421.046159  5  6  6 108       
PG21 -20953.574163 -16947.381841   2795.832950    151.777867  7  5  6  91       
PG22   4865.774782 -15586.170894  21374.533191    517.093386  4  6  8 109       
PG23  15436.344684 -14805.406874 -15635.888311     46.648109  8  7  6 106       
PG24  21762.900795  14287.474779   5915.624772   -267.532440  4  7  5 100       
PG25  16503.479926  -7129.093232  19151.386845    457.956826  4  5  4 107       
PG26   3339.411322 -25851.470887  -4136.307741    235.497638  6  5  6  99       
PG27  -7045.960279 -13874.330579 -21816.665939     -8.976512  8  5  6  98       
PG28   2281.893725 -17554.561591  19781.954617     81.201891  5  5  6  99       
PG29  26350.758364  -3740.058683   -368.528191   -606.260541  7  7  5 104       
PG30  -9990.560433  12291.515381 -21181.588206   -502.026801  8  6  2 113       
PG31  -7058.623188 -21957.757136  12608.198051   -220.602680  4  4  4 103       
PG32  12776.798769 -15389.992387  17558.037072   -527.118844  5  4  4 109       
*  2023  7 24  1 45  0.00000000
PG01 -21244.183006 -13644.674982   8440.874607    171.572691  7  6  8  93       
PG02 -21570.710529 -15487.259551   2678.148916   -573.045717  7  4  6 110       
PG03 -13823.685025  -5287.271840  21916.407663   -219.577477  5  3  5  90       
PG04 -24372.639545  -1638.896182  10580.461709    104.525672  9  5  7  88       
PG05   6836.782600  20387.057990 -15701.121958   -136.058966  7  6  5 110       
PG06  -2428.655977  16671.548473  20567.033932    574.884093  8  6  5 127       
PG07 -18402.597782    811.472504 -18836.523659    116.332796  8  6  6 105       
PG08 -16865.415837  -8629.621369 -18846.062899   -133.714459  6  6  5 105       
PG09 -25681.717562   6661.904304   1578.116134   -104.704689 10 13 12 123       
PG10  10994.367407 -22729.342712  -7522.513123    -46.385612  7  5  6 115       
PG11  10431.121738  22043.851878  10582.204859   -289.125466  5  4  6  98       
PG12  12161.715026   9916.986817  21163.456143   -404.364120  5  4  4  83       
PG13   8382.575474  13655.371216 -21402.794425    551.059341 10  4  6  99       
PG14 -13492.226995  20370.846551 -10192.498734    131.853887  6  4  5 100       
PG15  18283.302377   6951.243567 -18548.521705     60.875192  6  6  7  78       
PG16  -1558.182668 -22977.766912 -13125.221088   -477.182290  7  5  6  93       
PG17 -18091.288912  13781.893994  14235.546382    721.547173  9  9  9 112       
PG18  16311.705047  -3502.158608 -20707.453351   -356.776373  8  8  5  86       
PG19 -11126.127513  14795.531109  18703.631766    347.991220 10 10 11 106       
PG20   2137.888455  25901.973433  -5900.856414    421.044677  5  6  6 109       
PG21 -20906.539186 -17149.746188     -4.655189    151.777827  7  5  6 113       
PG22   7153.857930 -15870.540990  20470.203925    517.098415  4  6  7 106       
PG23  15103.020780 -12927.759359 -17526.850389     46.651996  8  7  6 101       
PG24  21988.755565  14877.742026   3203.092526   -267.543331  4  7  5 105       
PG25  16003.997946  -4853.252680  20261.525539    457.958898  4  6  3 101       
PG26   3753.148342 -26074.102802  -1340.082427    235.496526  5  4  6  75       
PG27  -4668.819871 -14469.958480 -22033.441852     -8.982878  7  5  6  99       
PG28   4011.607737 -15997.111271  20800.100441     81.200144  4  4  6  80       
PG29  26258.414850  -3517.883252   2507.911713   -606.261864  6  7  4 103       
PG30 -11699.147380  10514.296950 -21286.491433   -502.024223  8  6  3 110       
PG31  -5790.378976 -20932.530114  14815.406962   -220.603285  4  4  4 101       
PG32  14640.527815 -15687.569679  15706.328511   -527.125487  5  4  4 101       
*  2023  7 24  2  0  0.00000000
PG01 -21755.092693 -14327.967713   5699.790005    171.571072  7  5  8 102       
PG02 -21503.203933 -15717.678434   -177.316011   -573.042121  8  4  6  95       
PG03 -13256.464546  -7734.034773  21549.427299   -219.562582  6  3  5  88       
PG04 -23133.124494  -2192.256440  12981.367437    104.535596  8  5  7  84       
PG05   6378.911277  21981.150290 -13564.135313   -136.060625  7  6  6 106       
PG06  -4214.845751  15083.696542  21494.365982    574.880498  8  6  5 126       
PG07 -19887.625581   -742.137740 -17350.147345    116.323094  8  6  6  87       
PG08 -14815.540036  -9444.560550 -20105.069120   -133.716237  6  6  5  84       
PG09 -25434.896687   6301.063770   4396.257780   -104.696171 12 13 11 110       
PG10  10976.156437 -21666.146478 -10185.480337    -46.387239  7  6  6 114       
PG11   9342.282438  21228.333636  12990.395876   -289.140334  5  4  5  94       
PG12  11406.736484  12229.510272  20376.175742   -404.368083  5  4  4  87       
PG13   5988.517624  14090.627577 -21904.131349    551.064033 10  4  5  94       
PG14 -13420.309114  19033.172837 -12600.178623    131.864637  6  4  5 103       
PG15  16439.917003   7983.202877 -19824.223656     60.878487  6  6  6  93       
PG16   -938.856331 -24182.794992 -10704.465113   -477.178611  7  5  7  98       
PG17 -19515.133027  13973.315987  11917.050621    721.547180  9  9  9 116       
PG18  17922.797458  -1863.694583 -19571.112919   -356.788960  8  8  6  94       
PG19 -13207.093615  15066.123955  17052.334373    347.996054 10 11 11 107       
PG20   1845.092062  26407.844895  -3141.790511    421.043136  6  6  6 110       
PG21 -20622.488613 -17167.531242  -2805.018782    151.777140  7  4  6  99       
PG22   9309.954949 -16251.227528  19225.716322    517.103252  4  6  7 102       
PG23  14833.273224 -10841.907876 -19114.264585     46.655933  8  7  6 115       
PG24  22002.165861  15265.101669    436.503340   -267.554252  4  6  5 101       
PG25  15595.870866  -2452.240691  21011.452340    457.960954  5  6  3  94       
PG26   4107.186410 -26000.624464   1479.676965    235.495413  4  5  6 100       
PG27  -2320.035603 -15194.963699 -21879.932498     -8.989250  7  5  6  96       
PG28   5892.097885 -14469.690439  21459.730514     81.198366  4  4  6  84       
PG29  25863.413472  -3218.539992   5341.427573   -606.262754  6  7  3 109       
PG30 -13481.999883   8828.723942 -21021.276521   -502.021632  7  6  3 111       
PG31  -4302.795514 -19806.617897  16759.755311   -220.603848  4  4  4 104       
PG32  16274.902764 -16013.214886  13585.307491   -527.132128  6  4  4 105       
EOF
